[{"OBJECT_NAME":"STARLINK-6185","OBJECT_ID":"2023-083AB","EPOCH":"2026-03-09T22:00:01.999584","MEAN_MOTION":15.14323415,"ECCENTRICITY":0.00018993,"INCLINATION":43.0006,"RA_OF_ASC_NODE":79.6238,"ARG_OF_PERICENTER":290.3742,"MEAN_ANOMALY":128.6486,"EPHEMERIS_TYPE":0,"CLASSIFICATION_TYPE":"U","NORAD_CAT_ID":56901,"ELEMENT_SET_NO":999,"REV_AT_EPOCH":572,"BSTAR":0.005271535,"MEAN_MOTION_DOT":0.00099461,"MEAN_MOTION_DDOT":0},{"OBJECT_NAME":"POLYTECH-UNIVERSE 3 (RS46S)","OBJECT_ID":"2023-091AB","EPOCH":"2026-03-09T23:26:37.673088","MEAN_MOTION":15.18102693,"ECCENTRICITY":0.00173309,"INCLINATION":97.5173,"RA_OF_ASC_NODE":127.4169,"ARG_OF_PERICENTER":113.2405,"MEAN_ANOMALY":247.0656,"EPHEMERIS_TYPE":0,"CLASSIFICATION_TYPE":"U","NORAD_CAT_ID":57191,"ELEMENT_SET_NO":999,"REV_AT_EPOCH":14889,"BSTAR":0.00036949937,"MEAN_MOTION_DOT":7.497e-5,"MEAN_MOTION_DDOT":0}]
